ONEWEB-0291             
1 49081U 21075G   24273.60110988  .00009729  00000+0  25017-1 0  9990
2 49081  87.9109 130.4867 0002034  73.2501 286.8853 13.17596466151223
ONEWEB-0293             
1 49082U 21075H   24273.32268497  .00004552  00000+0  11688-1 0  9997
2 49082  87.9108 130.5614 0001867  76.0473 284.0866 13.17624064151215
ONEWEB-0294             
1 49083U 21075J   24273.57477981  .00000040  00000+0  76351-4 0  9994
2 49083  87.8850 115.2679 0002206  73.3555 286.7816 13.12441203152514
ONEWEB-0295             
1 49084U 21075K   24273.32183236  .00004074  00000+0  10457-1 0  9998
2 49084  87.9105 130.5395 0001730  66.8025 293.3288 13.17628646151175
ONEWEB-0296             
1 49085U 21075L   24273.32658689  .00000586  00000+0  15931-2 0  9995
2 49085  87.8853 115.3205 0002001  63.0596 297.0737 13.12444734152484
ONEWEB-0297             
1 49086U 21075M   24273.28117682 -.00000259  00000+0 -75455-3 0  9991
2 49086  87.8862 115.3444 0001578  81.7716 278.3592 13.12441368153087
ONEWEB-0298             
1 49087U 21075N   24273.32609733 -.00008559  00000+0 -22083-1 0  9998
2 49087  87.9155 130.5566 0001727  77.5226 282.6099 13.17695426151206
ONEWEB-0299             
1 49088U 21075P   24273.32776687 -.00008069  00000+0 -20818-1 0  9992
2 49088  87.9104 130.5211 0001533  73.0847 287.0453 13.17698331151181
